[{"OBJECT_NAME":"SKYNET 5B","OBJECT_ID":"2007-056B","EPOCH":"2026-03-15T05:09:54.243360","MEAN_MOTION":1.0027005,"ECCENTRICITY":0.0003934,"INCLINATION":5.0134,"RA_OF_ASC_NODE":74.6166,"ARG_OF_PERICENTER":277.0277,"MEAN_ANOMALY":283.7101,"EPHEMERIS_TYPE":0,"CLASSIFICATION_TYPE":"U","NORAD_CAT_ID":32294,"ELEMENT_SET_NO":999,"REV_AT_EPOCH":6725,"BSTAR":0,"MEAN_MOTION_DOT":1.42e-6,"MEAN_MOTION_DDOT":0},{"OBJECT_NAME":"ASTRA 4A","OBJECT_ID":"2007-057A","EPOCH":"2026-03-15T06:46:52.444416","MEAN_MOTION":1.00273193,"ECCENTRICITY":0.00024202,"INCLINATION":0.0313,"RA_OF_ASC_NODE":290.226,"ARG_OF_PERICENTER":74.7763,"MEAN_ANOMALY":274.4075,"EPHEMERIS_TYPE":0,"CLASSIFICATION_TYPE":"U","NORAD_CAT_ID":32299,"ELEMENT_SET_NO":999,"REV_AT_EPOCH":5070,"BSTAR":0,"MEAN_MOTION_DOT":3.2e-7,"MEAN_MOTION_DDOT":0},{"OBJECT_NAME":"HORIZONS-2","OBJECT_ID":"2007-063B","EPOCH":"2026-03-15T05:53:46.522176","MEAN_MOTION":1.00272808,"ECCENTRICITY":0.00024031,"INCLINATION":2.3582,"RA_OF_ASC_NODE":81.8038,"ARG_OF_PERICENTER":279.7076,"MEAN_ANOMALY":185.9878,"EPHEMERIS_TYPE":0,"CLASSIFICATION_TYPE":"U","NORAD_CAT_ID":32388,"ELEMENT_SET_NO":999,"REV_AT_EPOCH":6687,"BSTAR":0,"MEAN_MOTION_DOT":-2.53e-6,"MEAN_MOTION_DDOT":0},{"OBJECT_NAME":"THURAYA-3","OBJECT_ID":"2008-001A","EPOCH":"2026-03-14T22:40:09.120000","MEAN_MOTION":1.0026878,"ECCENTRICITY":0.00022815,"INCLINATION":5.8293,"RA_OF_ASC_NODE":35.6123,"ARG_OF_PERICENTER":326.29,"MEAN_ANOMALY":249.0754,"EPHEMERIS_TYPE":0,"CLASSIFICATION_TYPE":"U","NORAD_CAT_ID":32404,"ELEMENT_SET_NO":999,"REV_AT_EPOCH":6654,"BSTAR":0,"MEAN_MOTION_DOT":-2.97e-6,"MEAN_MOTION_DDOT":0},{"OBJECT_NAME":"EXPRESS-AM33","OBJECT_ID":"2008-003A","EPOCH":"2026-03-15T05:13:46.371648","MEAN_MOTION":1.0017678,"ECCENTRICITY":0.0013868,"INCLINATION":4.5593,"RA_OF_ASC_NODE":76.4734,"ARG_OF_PERICENTER":179.6112,"MEAN_ANOMALY":33.6462,"EPHEMERIS_TYPE":0,"CLASSIFICATION_TYPE":"U","NORAD_CAT_ID":32478,"ELEMENT_SET_NO":999,"REV_AT_EPOCH":5279,"BSTAR":0,"MEAN_MOTION_DOT":1.54e-6,"MEAN_MOTION_DDOT":0},{"OBJECT_NAME":"THOR 5","OBJECT_ID":"2008-006A","EPOCH":"2026-03-15T06:45:15.100128","MEAN_MOTION":1.00272801,"ECCENTRICITY":0.00027853,"INCLINATION":0.0459,"RA_OF_ASC_NODE":252.4813,"ARG_OF_PERICENTER":119.7965,"MEAN_ANOMALY":261.1598,"EPHEMERIS_TYPE":0,"CLASSIFICATION_TYPE":"U","NORAD_CAT_ID":32487,"ELEMENT_SET_NO":999,"REV_AT_EPOCH":6637,"BSTAR":0,"MEAN_MOTION_DOT":-1.0e-7,"MEAN_MOTION_DDOT":0},{"OBJECT_NAME":"KIZUNA (WINDS)","OBJECT_ID":"2008-007A","EPOCH":"2026-03-15T05:01:47.521056","MEAN_MOTION":1.00285906,"ECCENTRICITY":9.285e-5,"INCLINATION":8.3051,"RA_OF_ASC_NODE":63.2115,"ARG_OF_PERICENTER":210.2692,"MEAN_ANOMALY":331.35,"EPHEMERIS_TYPE":0,"CLASSIFICATION_TYPE":"U","NORAD_CAT_ID":32500,"ELEMENT_SET_NO":999,"REV_AT_EPOCH":6595,"BSTAR":0,"MEAN_MOTION_DOT":-2.8e-7,"MEAN_MOTION_DDOT":0},{"OBJECT_NAME":"DIRECTV 11","OBJECT_ID":"2008-013A","EPOCH":"2026-03-15T04:07:01.717824","MEAN_MOTION":1.00272033,"ECCENTRICITY":2.478e-5,"INCLINATION":0.0056,"RA_OF_ASC_NODE":63.809,"ARG_OF_PERICENTER":327.86,"MEAN_ANOMALY":103.6676,"EPHEMERIS_TYPE":0,"CLASSIFICATION_TYPE":"U","NORAD_CAT_ID":32729,"ELEMENT_SET_NO":999,"REV_AT_EPOCH":4465,"BSTAR":0,"MEAN_MOTION_DOT":-1.27e-6,"MEAN_MOTION_DDOT":0},{"OBJECT_NAME":"ICO G1","OBJECT_ID":"2008-016A","EPOCH":"2026-03-15T06:57:54.167328","MEAN_MOTION":1.00272888,"ECCENTRICITY":0.00029304,"INCLINATION":5.5146,"RA_OF_ASC_NODE":36.3525,"ARG_OF_PERICENTER":295.6993,"MEAN_ANOMALY":212.465,"EPHEMERIS_TYPE":0,"CLASSIFICATION_TYPE":"U","NORAD_CAT_ID":32763,"ELEMENT_SET_NO":999,"REV_AT_EPOCH":6560,"BSTAR":0,"MEAN_MOTION_DOT":-1.69e-6,"MEAN_MOTION_DDOT":0},{"OBJECT_NAME":"VINASAT-1","OBJECT_ID":"2008-018A","EPOCH":"2026-03-15T05:40:28.810848","MEAN_MOTION":1.00271673,"ECCENTRICITY":0.00024798,"INCLINATION":0.0363,"RA_OF_ASC_NODE":279.3391,"ARG_OF_PERICENTER":117.4851,"MEAN_ANOMALY":353.0736,"EPHEMERIS_TYPE":0,"CLASSIFICATION_TYPE":"U","NORAD_CAT_ID":32767,"ELEMENT_SET_NO":999,"REV_AT_EPOCH":6564,"BSTAR":0,"MEAN_MOTION_DOT":-3.29e-6,"MEAN_MOTION_DDOT":0},{"OBJECT_NAME":"STAR ONE C2","OBJECT_ID":"2008-018B","EPOCH":"2026-03-15T06:27:01.846368","MEAN_MOTION":1.0027446,"ECCENTRICITY":0.00026914,"INCLINATION":0.999,"RA_OF_ASC_NODE":83.3275,"ARG_OF_PERICENTER":271.8004,"MEAN_ANOMALY":209.486,"EPHEMERIS_TYPE":0,"CLASSIFICATION_TYPE":"U","NORAD_CAT_ID":32768,"ELEMENT_SET_NO":999,"REV_AT_EPOCH":6571,"BSTAR":0,"MEAN_MOTION_DOT":-2.77e-6,"MEAN_MOTION_DDOT":0},{"OBJECT_NAME":"AMOS-3","OBJECT_ID":"2008-022A","EPOCH":"2026-03-15T05:01:40.032768","MEAN_MOTION":1.00271223,"ECCENTRICITY":0.00013679,"INCLINATION":0.2111,"RA_OF_ASC_NODE":88.3424,"ARG_OF_PERICENTER":187.153,"MEAN_ANOMALY":328.6001,"EPHEMERIS_TYPE":0,"CLASSIFICATION_TYPE":"U","NORAD_CAT_ID":32794,"ELEMENT_SET_NO":999,"REV_AT_EPOCH":8139,"BSTAR":0,"MEAN_MOTION_DOT":-3.6e-7,"MEAN_MOTION_DDOT":0},{"OBJECT_NAME":"GALAXY 18 (G-18)","OBJECT_ID":"2008-024A","EPOCH":"2026-03-14T23:19:42.826944","MEAN_MOTION":1.00272991,"ECCENTRICITY":0.00030556,"INCLINATION":0.0195,"RA_OF_ASC_NODE":108.6449,"ARG_OF_PERICENTER":259.1238,"MEAN_ANOMALY":31.7351,"EPHEMERIS_TYPE":0,"CLASSIFICATION_TYPE":"U","NORAD_CAT_ID":32951,"ELEMENT_SET_NO":999,"REV_AT_EPOCH":4490,"BSTAR":0,"MEAN_MOTION_DOT":2.4e-7,"MEAN_MOTION_DDOT":0},{"OBJECT_NAME":"ZHONGXING-9","OBJECT_ID":"2008-028A","EPOCH":"2026-03-13T19:15:25.189632","MEAN_MOTION":1.00270101,"ECCENTRICITY":0.00083743,"INCLINATION":0.5233,"RA_OF_ASC_NODE":86.8156,"ARG_OF_PERICENTER":249.5125,"MEAN_ANOMALY":216.3123,"EPHEMERIS_TYPE":0,"CLASSIFICATION_TYPE":"U","NORAD_CAT_ID":33051,"ELEMENT_SET_NO":999,"REV_AT_EPOCH":6508,"BSTAR":0,"MEAN_MOTION_DOT":-2.49e-6,"MEAN_MOTION_DDOT":0},{"OBJECT_NAME":"SKYNET 5C","OBJECT_ID":"2008-030A","EPOCH":"2026-03-15T06:40:23.065536","MEAN_MOTION":1.00271939,"ECCENTRICITY":0.00051019,"INCLINATION":3.5471,"RA_OF_ASC_NODE":78.1511,"ARG_OF_PERICENTER":291.819,"MEAN_ANOMALY":245.1964,"EPHEMERIS_TYPE":0,"CLASSIFICATION_TYPE":"U","NORAD_CAT_ID":33055,"ELEMENT_SET_NO":999,"REV_AT_EPOCH":6501,"BSTAR":0,"MEAN_MOTION_DOT":-1.39e-6,"MEAN_MOTION_DDOT":0},{"OBJECT_NAME":"TURKSAT 3A","OBJECT_ID":"2008-030B","EPOCH":"2026-03-15T05:35:38.700384","MEAN_MOTION":1.00273258,"ECCENTRICITY":0.00047478,"INCLINATION":0.045,"RA_OF_ASC_NODE":83.747,"ARG_OF_PERICENTER":297.9352,"MEAN_ANOMALY":277.0413,"EPHEMERIS_TYPE":0,"CLASSIFICATION_TYPE":"U","NORAD_CAT_ID":33056,"ELEMENT_SET_NO":999,"REV_AT_EPOCH":5141,"BSTAR":0,"MEAN_MOTION_DOT":1.45e-6,"MEAN_MOTION_DDOT":0},{"OBJECT_NAME":"COSMOS 2440","OBJECT_ID":"2008-033A","EPOCH":"2026-03-14T22:34:47.134848","MEAN_MOTION":1.00276225,"ECCENTRICITY":0.00047631,"INCLINATION":10.4031,"RA_OF_ASC_NODE":41.8601,"ARG_OF_PERICENTER":224.5017,"MEAN_ANOMALY":324.7648,"EPHEMERIS_TYPE":0,"CLASSIFICATION_TYPE":"U","NORAD_CAT_ID":33108,"ELEMENT_SET_NO":999,"REV_AT_EPOCH":6484,"BSTAR":0,"MEAN_MOTION_DOT":-1.41e-6,"MEAN_MOTION_DDOT":0}]
