SKYNET 5B               
1 32294U 07056B   26074.21521115  .00000142  00000+0  00000+0 0  9990
2 32294   5.0134  74.6166 0003934 277.0277 283.7101  1.00270050 67253
ASTRA 4A                
1 32299U 07057A   26074.28255144  .00000032  00000+0  00000+0 0  9997
2 32299   0.0313 290.2260 0002420  74.7763 274.4075  1.00273193 50704
HORIZONS-2              
1 32388U 07063B   26074.24567734 -.00000253  00000+0  00000+0 0  9996
2 32388   2.3582  81.8038 0002403 279.7076 185.9878  1.00272808 66872
THURAYA-3               
1 32404U 08001A   26073.94455000 -.00000297  00000+0  00000+0 0  9994
2 32404   5.8293  35.6123 0002281 326.2900 249.0754  1.00268780 66541
EXPRESS-AM33            
1 32478U 08003A   26074.21789782  .00000154  00000+0  00000+0 0  9996
2 32478   4.5593  76.4734 0013868 179.6112  33.6462  1.00176780 52793
THOR 5                  
1 32487U 08006A   26074.28142477 -.00000010  00000+0  00000+0 0  9992
2 32487   0.0459 252.4813 0002785 119.7965 261.1598  1.00272801 66374
KIZUNA (WINDS)          
1 32500U 08007A   26074.20957779 -.00000028  00000+0  00000+0 0  9999
2 32500   8.3051  63.2115 0000928 210.2692 331.3500  1.00285906 65959
DIRECTV 11              
1 32729U 08013A   26074.17154766 -.00000127  00000+0  00000+0 0  9990
2 32729   0.0056  63.8090 0000247 327.8600 103.6676  1.00272033 44657
ICO G1                  
1 32763U 08016A   26074.29021027 -.00000169  00000+0  00000+0 0  9993
2 32763   5.5146  36.3525 0002930 295.6993 212.4650  1.00272888 65608
VINASAT-1               
1 32767U 08018A   26074.23644457 -.00000329  00000+0  00000+0 0  9999
2 32767   0.0363 279.3391 0002479 117.4851 353.0736  1.00271673 65647
STAR ONE C2             
1 32768U 08018B   26074.26877137 -.00000277  00000+0  00000+0 0  9998
2 32768   0.9990  83.3275 0002691 271.8004 209.4860  1.00274460 65715
AMOS-3                  
1 32794U 08022A   26074.20949112 -.00000036  00000+0  00000+0 0  9992
2 32794   0.2111  88.3424 0001367 187.1530 328.6001  1.00271223 81392
GALAXY 18 (G-18)        
1 32951U 08024A   26073.97202346  .00000024  00000+0  00000+0 0  9999
2 32951   0.0195 108.6449 0003055 259.1238  31.7351  1.00272991 44900
ZHONGXING-9             
1 33051U 08028A   26072.80237488 -.00000249  00000+0  00000+0 0  9991
2 33051   0.5233  86.8156 0008374 249.5125 216.3123  1.00270101 65080
SKYNET 5C               
1 33055U 08030A   26074.27804474 -.00000139  00000+0  00000+0 0  9994
2 33055   3.5471  78.1511 0005101 291.8190 245.1964  1.00271939 65013
TURKSAT 3A              
1 33056U 08030B   26074.23308681  .00000145  00000+0  00000+0 0  9996
2 33056   0.0450  83.7470 0004747 297.9352 277.0413  1.00273258 51419
COSMOS 2440             
1 33108U 08033A   26073.94082332 -.00000141  00000+0  00000+0 0  9993
2 33108  10.4031  41.8601 0004763 224.5017 324.7648  1.00276225 64848
